PRAETORIAN SDA_617      
1 65580U 25203R   26094.22153856  .00000066  00000+0  49346-4 0  9990
2 65580  81.3005  79.2807 0008367  39.5355 320.6410 13.83194753 28460
PRAETORIAN SDA_618      
1 65581U 25203S   26094.27841702  .00000345  00000+0  29602-3 0  9992
2 65581  81.2994  79.0017 0010583  38.7759 321.4156 13.84764612 28486
PRAETORIAN SDA_619      
1 65582U 25203T   26094.19734571  .00000312  00000+0  27002-3 0  9995
2 65582  81.3012  79.2600 0008914  38.4106 321.7683 13.83935266 29097
PRAETORIAN SDA_620      
1 65583U 25203U   26094.28292031  .00000303  00000+0  26342-3 0  9992
2 65583  81.2999  79.1808 0008390  37.6473 322.5269 13.83709005 28476
PRAETORIAN SDA_621      
1 65584U 25203V   26094.19316634  .00000086  00000+0  67340-4 0  9991
2 65584  81.2991  79.2080 0008167  34.1637 326.0043 13.83790916 28467
PRAETORIAN SDA_601      
1 65585U 25203W   26094.28280598 -.00016861  00000+0 -15371-1 0  9995
2 65585  81.3007  79.3539 0006440  51.0995 309.0735 13.83438190 28466
