[{"OBJECT_NAME":"PRAETORIAN SDA_617","OBJECT_ID":"2025-203R","EPOCH":"2026-04-04T05:19:00.931584","MEAN_MOTION":13.83194753,"ECCENTRICITY":0.00083674,"INCLINATION":81.3005,"RA_OF_ASC_NODE":79.2807,"ARG_OF_PERICENTER":39.5355,"MEAN_ANOMALY":320.641,"EPHEMERIS_TYPE":0,"CLASSIFICATION_TYPE":"U","NORAD_CAT_ID":65580,"ELEMENT_SET_NO":999,"REV_AT_EPOCH":2846,"BSTAR":4.9346226e-5,"MEAN_MOTION_DOT":6.6e-7,"MEAN_MOTION_DDOT":0},{"OBJECT_NAME":"PRAETORIAN SDA_618","OBJECT_ID":"2025-203S","EPOCH":"2026-04-04T06:40:55.230528","MEAN_MOTION":13.84764612,"ECCENTRICITY":0.00105834,"INCLINATION":81.2994,"RA_OF_ASC_NODE":79.0017,"ARG_OF_PERICENTER":38.7759,"MEAN_ANOMALY":321.4156,"EPHEMERIS_TYPE":0,"CLASSIFICATION_TYPE":"U","NORAD_CAT_ID":65581,"ELEMENT_SET_NO":999,"REV_AT_EPOCH":2848,"BSTAR":0.00029601523,"MEAN_MOTION_DOT":3.45e-6,"MEAN_MOTION_DDOT":0},{"OBJECT_NAME":"PRAETORIAN SDA_619","OBJECT_ID":"2025-203T","EPOCH":"2026-04-04T04:44:10.669344","MEAN_MOTION":13.83935266,"ECCENTRICITY":0.00089145,"INCLINATION":81.3012,"RA_OF_ASC_NODE":79.26,"ARG_OF_PERICENTER":38.4106,"MEAN_ANOMALY":321.7683,"EPHEMERIS_TYPE":0,"CLASSIFICATION_TYPE":"U","NORAD_CAT_ID":65582,"ELEMENT_SET_NO":999,"REV_AT_EPOCH":2909,"BSTAR":0.00027002022,"MEAN_MOTION_DOT":3.12e-6,"MEAN_MOTION_DDOT":0},{"OBJECT_NAME":"PRAETORIAN SDA_620","OBJECT_ID":"2025-203U","EPOCH":"2026-04-04T06:47:24.314784","MEAN_MOTION":13.83709005,"ECCENTRICITY":0.00083909,"INCLINATION":81.2999,"RA_OF_ASC_NODE":79.1808,"ARG_OF_PERICENTER":37.6473,"MEAN_ANOMALY":322.5269,"EPHEMERIS_TYPE":0,"CLASSIFICATION_TYPE":"U","NORAD_CAT_ID":65583,"ELEMENT_SET_NO":999,"REV_AT_EPOCH":2847,"BSTAR":0.00026342211,"MEAN_MOTION_DOT":3.03e-6,"MEAN_MOTION_DDOT":0},{"OBJECT_NAME":"PRAETORIAN SDA_621","OBJECT_ID":"2025-203V","EPOCH":"2026-04-04T04:38:09.571776","MEAN_MOTION":13.83790916,"ECCENTRICITY":0.00081674,"INCLINATION":81.2991,"RA_OF_ASC_NODE":79.208,"ARG_OF_PERICENTER":34.1637,"MEAN_ANOMALY":326.0043,"EPHEMERIS_TYPE":0,"CLASSIFICATION_TYPE":"U","NORAD_CAT_ID":65584,"ELEMENT_SET_NO":999,"REV_AT_EPOCH":2846,"BSTAR":6.7339517e-5,"MEAN_MOTION_DOT":8.6e-7,"MEAN_MOTION_DDOT":0},{"OBJECT_NAME":"PRAETORIAN SDA_601","OBJECT_ID":"2025-203W","EPOCH":"2026-04-04T06:47:14.436672","MEAN_MOTION":13.8343819,"ECCENTRICITY":0.00064401,"INCLINATION":81.3007,"RA_OF_ASC_NODE":79.3539,"ARG_OF_PERICENTER":51.0995,"MEAN_ANOMALY":309.0735,"EPHEMERIS_TYPE":0,"CLASSIFICATION_TYPE":"U","NORAD_CAT_ID":65585,"ELEMENT_SET_NO":999,"REV_AT_EPOCH":2846,"BSTAR":-0.015371163,"MEAN_MOTION_DOT":-0.00016861,"MEAN_MOTION_DDOT":0}]
